[{"OBJECT_NAME":"PIESAT B","OBJECT_ID":"2023-047B","EPOCH":"2026-03-09T13:45:37.197216","MEAN_MOTION":15.14300167,"ECCENTRICITY":0.0001556,"INCLINATION":97.5017,"RA_OF_ASC_NODE":257.1462,"ARG_OF_PERICENTER":107.7309,"MEAN_ANOMALY":252.4093,"EPHEMERIS_TYPE":0,"CLASSIFICATION_TYPE":"U","NORAD_CAT_ID":56154,"ELEMENT_SET_NO":999,"REV_AT_EPOCH":16272,"BSTAR":0.00018082,"MEAN_MOTION_DOT":3.244e-5,"MEAN_MOTION_DDOT":0},{"OBJECT_NAME":"PIESAT D","OBJECT_ID":"2023-047D","EPOCH":"2026-03-09T13:45:37.058976","MEAN_MOTION":15.14301886,"ECCENTRICITY":0.0001784,"INCLINATION":97.5049,"RA_OF_ASC_NODE":257.1462,"ARG_OF_PERICENTER":95.5605,"MEAN_ANOMALY":264.5831,"EPHEMERIS_TYPE":0,"CLASSIFICATION_TYPE":"U","NORAD_CAT_ID":56156,"ELEMENT_SET_NO":999,"REV_AT_EPOCH":16272,"BSTAR":0.00028476,"MEAN_MOTION_DOT":5.148e-5,"MEAN_MOTION_DDOT":0}]
