PIESAT B                
1 56154U 23047B   26068.57334719  .00003244  00000+0  18082-3 0  9992
2 56154  97.5017 257.1462 0001556 107.7309 252.4093 15.14300167162724
PIESAT D                
1 56156U 23047D   26068.57334559  .00005148  00000+0  28476-3 0  9999
2 56156  97.5049 257.1462 0001784  95.5605 264.5831 15.14301886162720
